{"type":"FeatureCollection","features":[{"type":"Feature","properties":{"site":"fulton-howard-west","bbl":"3015480019","address":"1958 FULTON STREET"},"geometry":{"type":"MultiPolygon","coordinates":[[[[-73.919904,40.678674],[-73.919931,40.678385],[-73.919856,40.678381],[-73.919782,40.678377],[-73.919709,40.678373],[-73.91964,40.678369],[-73.919573,40.678365],[-73.919393,40.678355],[-73.919202,40.678345],[-73.919231,40.678061],[-73.920496,40.67813],[-73.920475,40.678356],[-73.92047,40.678418],[-73.920443,40.678703],[-73.919904,40.678674]]]]}},{"type":"Feature","properties":{"site":"broadway-triangle","bbl":"3022490023","address":"UNION AVENUE"},"geometry":{"type":"MultiPolygon","coordinates":[[[[-73.949661,40.701135],[-73.949858,40.701138],[-73.949855,40.701223],[-73.950007,40.701225],[-73.950009,40.70114],[-73.950145,40.701142],[-73.950134,40.701547],[-73.950122,40.701555],[-73.949657,40.701137],[-73.949661,40.701135]]]]}},{"type":"Feature","properties":{"site":"broadway-triangle","bbl":"3022490122","address":"UNION AVENUE"},"geometry":{"type":"MultiPolygon","coordinates":[[[[-73.949661,40.701135],[-73.949679,40.701123],[-73.950153,40.700817],[-73.950145,40.701142],[-73.950009,40.70114],[-73.950007,40.701225],[-73.949855,40.701223],[-73.949858,40.701138],[-73.949661,40.701135]]]]}},{"type":"Feature","properties":{"site":"broadway-triangle","bbl":"3022497503","address":"251 WALLABOUT STREET"},"geometry":{"type":"MultiPolygon","coordinates":[[[[-73.949657,40.701137],[-73.950122,40.701555],[-73.950079,40.701582],[-73.950008,40.701628],[-73.949664,40.70185],[-73.949198,40.701434],[-73.949203,40.701431],[-73.949657,40.701137]]]]}},{"type":"Feature","properties":{"site":"broadway-triangle","bbl":"3022497504","address":"269 WALLABOUT STREET"},"geometry":{"type":"MultiPolygon","coordinates":[[[[-73.949198,40.701434],[-73.949664,40.70185],[-73.949389,40.702028],[-73.948981,40.701664],[-73.948923,40.701612],[-73.949198,40.701434]]]]}},{"type":"Feature","properties":{"site":"broadway-triangle","bbl":"3022650022","address":"UNION AVENUE"},"geometry":{"type":"MultiPolygon","coordinates":[[[[-73.949577,40.700206],[-73.950003,40.699932],[-73.950133,40.700575],[-73.950049,40.700629],[-73.949577,40.700206]]]]}},{"type":"Feature","properties":{"site":"broadway-triangle","bbl":"3022657501","address":"352 WALLABOUT STREET"},"geometry":{"type":"MultiPolygon","coordinates":[[[[-73.948564,40.700859],[-73.949038,40.701284],[-73.94876,40.701464],[-73.948285,40.701038],[-73.948564,40.700859]]]]}},{"type":"Feature","properties":{"site":"broadway-triangle","bbl":"3022657502","address":"342 WALLABOUT STREET"},"geometry":{"type":"MultiPolygon","coordinates":[[[[-73.949021,40.700564],[-73.949494,40.700989],[-73.949038,40.701284],[-73.948564,40.700859],[-73.949021,40.700564]]]]}},{"type":"Feature","properties":{"site":"broadway-triangle","bbl":"3022657503","address":"330 WALLABOUT STREET"},"geometry":{"type":"MultiPolygon","coordinates":[[[[-73.9493,40.700385],[-73.949772,40.700809],[-73.949494,40.700989],[-73.949021,40.700564],[-73.9493,40.700385]]]]}},{"type":"Feature","properties":{"site":"broadway-triangle","bbl":"3022657504","address":"322 WALLABOUT STREET"},"geometry":{"type":"MultiPolygon","coordinates":[[[[-73.949577,40.700206],[-73.950049,40.700629],[-73.949772,40.700809],[-73.9493,40.700385],[-73.949577,40.700206]]]]}},{"type":"Feature","properties":{"site":"bushwick-inlet-park","bbl":"3022770001","address":"26 NORTH 12 STREET"},"geometry":{"type":"MultiPolygon","coordinates":[[[[-73.959252,40.724641],[-73.95812,40.724239],[-73.957991,40.72414],[-73.957869,40.724015],[-73.958758,40.723189],[-73.961605,40.724972],[-73.96162,40.724982],[-73.961641,40.72494],[-73.961661,40.724901],[-73.961674,40.724909],[-73.962084,40.72516],[-73.962095,40.725168],[-73.962036,40.72523],[-73.962017,40.725244],[-73.961955,40.725309],[-73.961936,40.72533],[-73.96191,40.725322],[-73.961794,40.725309],[-73.961823,40.72528],[-73.961778,40.725255],[-73.961737,40.725239],[-73.961631,40.725213],[-73.961502,40.725182],[-73.961486,40.72518],[-73.961471,40.725179],[-73.961459,40.72518],[-73.961443,40.725182],[-73.961426,40.725187],[-73.961413,40.725193],[-73.961393,40.725206],[-73.961378,40.725212],[-73.961367,40.725216],[-73.961333,40.725225],[-73.961294,40.725237],[-73.961275,40.725241],[-73.961241,40.725246],[-73.961235,40.725247],[-73.960844,40.725202],[-73.960261,40.724995],[-73.959252,40.724641]]]]}},{"type":"Feature","properties":{"site":"bushwick-inlet-park","bbl":"3022870001","address":"41 NORTH 11 STREET"},"geometry":{"type":"MultiPolygon","coordinates":[[[[-73.960477,40.723336],[-73.959998,40.723769],[-73.958884,40.723073],[-73.959352,40.722637],[-73.960477,40.723336]]]]}},{"type":"Feature","properties":{"site":"bushwick-inlet-park","bbl":"3022870016","address":"20 NORTH 12 STREET"},"geometry":{"type":"MultiPolygon","coordinates":[[[[-73.959998,40.723769],[-73.960477,40.723336],[-73.96134,40.723872],[-73.96086,40.724307],[-73.959998,40.723769]]]]}},{"type":"Feature","properties":{"site":"bushwick-inlet-park","bbl":"3022870030","address":"2 NORTH 12 STREET"},"geometry":{"type":"MultiPolygon","coordinates":[[[[-73.96086,40.724307],[-73.96134,40.723872],[-73.961924,40.724235],[-73.96193,40.724223],[-73.961908,40.724209],[-73.961908,40.724209],[-73.961913,40.724198],[-73.961932,40.724211],[-73.96194,40.724217],[-73.961944,40.724223],[-73.961946,40.72423],[-73.961947,40.724241],[-73.961955,40.724282],[-73.961954,40.724292],[-73.961948,40.7243],[-73.961934,40.724299],[-73.961916,40.724292],[-73.961905,40.724294],[-73.961807,40.724498],[-73.961675,40.724816],[-73.96086,40.724307]]],[[[-73.962084,40.72516],[-73.961674,40.724909],[-73.961661,40.724901],[-73.961675,40.72487],[-73.962109,40.725141],[-73.96211,40.725152],[-73.962095,40.725168],[-73.962084,40.72516]]]]}},{"type":"Feature","properties":{"site":"bushwick-inlet-park","bbl":"3022940001","address":"16 NORTH 11 STREET"},"geometry":{"type":"MultiPolygon","coordinates":[[[[-73.959503,40.722497],[-73.959682,40.722331],[-73.959984,40.722517],[-73.960038,40.722469],[-73.960879,40.722988],[-73.961091,40.722795],[-73.961715,40.723182],[-73.961841,40.723067],[-73.962329,40.72337],[-73.962307,40.723411],[-73.962247,40.723521],[-73.962242,40.723531],[-73.962099,40.723825],[-73.962067,40.723889],[-73.962017,40.723994],[-73.96196,40.723965],[-73.961948,40.723961],[-73.961935,40.723959],[-73.961926,40.72396],[-73.961912,40.723962],[-73.961901,40.723964],[-73.961891,40.723969],[-73.961885,40.723978],[-73.961882,40.723986],[-73.961879,40.723998],[-73.961736,40.723908],[-73.961735,40.723907],[-73.959503,40.722497]]]]}},{"type":"Feature","properties":{"site":"bushwick-inlet-park","bbl":"3022940005","address":"33 NORTH 10 STREET"},"geometry":{"type":"MultiPolygon","coordinates":[[[[-73.959682,40.722331],[-73.959947,40.722085],[-73.961091,40.722795],[-73.960879,40.722988],[-73.960038,40.722469],[-73.959984,40.722517],[-73.959682,40.722331]]]]}},{"type":"Feature","properties":{"site":"bushwick-inlet-park","bbl":"3023010001","address":"86 KENT AVENUE"},"geometry":{"type":"MultiPolygon","coordinates":[[[[-73.961693,40.722662],[-73.961133,40.722315],[-73.961102,40.722344],[-73.960593,40.722029],[-73.960242,40.721811],[-73.960523,40.72155],[-73.962601,40.722837],[-73.962632,40.722784],[-73.962636,40.722786],[-73.96263,40.72281],[-73.962614,40.722828],[-73.962613,40.722837],[-73.962634,40.722848],[-73.962685,40.722868],[-73.96273,40.722888],[-73.962775,40.722907],[-73.962825,40.722927],[-73.962879,40.722949],[-73.962911,40.722963],[-73.962941,40.722978],[-73.962995,40.723006],[-73.963009,40.723017],[-73.963019,40.723018],[-73.963026,40.723013],[-73.963038,40.723002],[-73.963038,40.723002],[-73.963421,40.72324],[-73.963417,40.723241],[-73.963393,40.723246],[-73.963383,40.723246],[-73.963373,40.723243],[-73.963363,40.723243],[-73.963289,40.723198],[-73.962973,40.723007],[-73.962608,40.722851],[-73.962554,40.722954],[-73.962543,40.722948],[-73.962456,40.723026],[-73.962496,40.723062],[-73.962647,40.723158],[-73.962799,40.723254],[-73.963073,40.723428],[-73.963381,40.723622],[-73.963211,40.72377],[-73.962735,40.723469],[-73.962699,40.723447],[-73.962643,40.723412],[-73.962391,40.723254],[-73.962329,40.72337],[-73.961841,40.723067],[-73.961497,40.722854],[-73.961693,40.722662]]]]}},{"type":"Feature","properties":{"site":"bushwick-inlet-park","bbl":"3023010050","address":"NORTH 10 STREET"},"geometry":{"type":"MultiPolygon","coordinates":[[[[-73.960935,40.722506],[-73.961102,40.722344],[-73.961133,40.722315],[-73.961693,40.722662],[-73.961497,40.722854],[-73.960935,40.722506]]]]}},{"type":"Feature","properties":{"site":"bushwick-inlet-park","bbl":"3023010060","address":"32 NORTH 10 STREET"},"geometry":{"type":"MultiPolygon","coordinates":[[[[-73.960935,40.722506],[-73.960426,40.722191],[-73.960593,40.722029],[-73.961102,40.722344],[-73.960935,40.722506]]]]}},{"type":"Feature","properties":{"site":"bushwick-inlet-park","bbl":"3023010070","address":"40 NORTH 10 STREET"},"geometry":{"type":"MultiPolygon","coordinates":[[[[-73.960426,40.722191],[-73.96007,40.72197],[-73.960242,40.721811],[-73.960593,40.722029],[-73.960426,40.722191]]]]}},{"type":"Feature","properties":{"site":"river-ring","bbl":"3023550001","address":"105 RIVER STREET"},"geometry":{"type":"MultiPolygon","coordinates":[[[[-73.965537,40.718886],[-73.965535,40.718888],[-73.965529,40.718901],[-73.965524,40.718907],[-73.965519,40.718913],[-73.965512,40.718918],[-73.965508,40.71892],[-73.965505,40.718918],[-73.965537,40.718886]]],[[[-73.965556,40.718867],[-73.964751,40.71836],[-73.965195,40.717912],[-73.966032,40.718385],[-73.966042,40.718391],[-73.966043,40.718391],[-73.966116,40.718433],[-73.966115,40.718435],[-73.966149,40.718455],[-73.966121,40.718488],[-73.96613,40.718494],[-73.966076,40.718554],[-73.96588,40.718758],[-73.965864,40.718774],[-73.965852,40.718768],[-73.965679,40.718952],[-73.965549,40.718874],[-73.965556,40.718867]]]]}},{"type":"Feature","properties":{"site":"river-ring","bbl":"3023610001","address":"RIVER STREET"},"geometry":{"type":"MultiPolygon","coordinates":[[[[-73.96576,40.717342],[-73.966363,40.717641],[-73.966397,40.717658],[-73.966523,40.717721],[-73.966569,40.717743],[-73.966603,40.717701],[-73.966648,40.717724],[-73.966655,40.717728],[-73.966649,40.717739],[-73.966636,40.717759],[-73.966674,40.717778],[-73.966698,40.717749],[-73.966735,40.717768],[-73.966593,40.717978],[-73.966567,40.718018],[-73.966552,40.718038],[-73.966528,40.718029],[-73.966342,40.718295],[-73.966202,40.718216],[-73.966191,40.71821],[-73.966088,40.718152],[-73.965363,40.717743],[-73.96576,40.717342]]]]}},{"type":"Feature","properties":{"site":"river-ring","bbl":"3023610050","address":"RIVER STREET"},"geometry":{"type":"MultiPolygon","coordinates":[[[[-73.966648,40.717645],[-73.966682,40.717662],[-73.966681,40.717664],[-73.966677,40.71768],[-73.966673,40.717691],[-73.966663,40.717714],[-73.966655,40.717728],[-73.966648,40.717724],[-73.966603,40.717701],[-73.966648,40.717645]]],[[[-73.966698,40.717749],[-73.966711,40.717732],[-73.966733,40.717742],[-73.966749,40.717749],[-73.966735,40.717768],[-73.966698,40.717749]]]]}},{"type":"Feature","properties":{"site":"river-ring","bbl":"3023610101","address":"RIVER STREET"},"geometry":{"type":"MultiPolygon","coordinates":[[[[-73.966523,40.717721],[-73.966588,40.717655],[-73.966615,40.717628],[-73.966648,40.717645],[-73.966603,40.717701],[-73.966569,40.717743],[-73.966523,40.717721]]]]}},{"type":"Feature","properties":{"site":"greenpoint-landing-phase-2","bbl":"3025020001","address":"WEST STREET"},"geometry":{"type":"MultiPolygon","coordinates":[[[[-73.961735,40.733808],[-73.962298,40.733754],[-73.962304,40.733836],[-73.962343,40.733833],[-73.962341,40.733841],[-73.962315,40.733957],[-73.962302,40.734007],[-73.962294,40.734028],[-73.962285,40.734048],[-73.962202,40.734214],[-73.962186,40.734249],[-73.962164,40.734312],[-73.96213,40.734398],[-73.962119,40.734431],[-73.962017,40.73444],[-73.962013,40.73444],[-73.962037,40.734399],[-73.960155,40.734577],[-73.960067,40.734053],[-73.960054,40.733971],[-73.961735,40.733808]]]]}},{"type":"Feature","properties":{"site":"greenpoint-landing-phase-2","bbl":"3025020005","address":"WEST STREET"},"geometry":{"type":"MultiPolygon","coordinates":[[[[-73.960155,40.734577],[-73.962037,40.734399],[-73.962013,40.73444],[-73.961715,40.734469],[-73.961694,40.734513],[-73.96167,40.734516],[-73.960169,40.734661],[-73.960155,40.734577]]]]}},{"type":"Feature","properties":{"site":"97-west-street","bbl":"3025560001","address":"97 WEST STREET"},"geometry":{"type":"MultiPolygon","coordinates":[[[[-73.961108,40.728857],[-73.961106,40.728965],[-73.961105,40.728974],[-73.961103,40.729135],[-73.961102,40.729193],[-73.961102,40.729205],[-73.961102,40.729214],[-73.961123,40.729348],[-73.961137,40.72943],[-73.961197,40.729425],[-73.961197,40.729426],[-73.961181,40.729428],[-73.960281,40.729515],[-73.959316,40.729608],[-73.959226,40.72908],[-73.959219,40.72904],[-73.961108,40.728857]]]]}},{"type":"Feature","properties":{"site":"transmitter-park","bbl":"3025560041","address":"10 KENT STREET"},"geometry":{"type":"MultiPolygon","coordinates":[[[[-73.960317,40.729726],[-73.960281,40.729515],[-73.961181,40.729428],[-73.961197,40.729426],[-73.961214,40.729508],[-73.961337,40.730157],[-73.961289,40.730162],[-73.961289,40.730165],[-73.960354,40.730256],[-73.960269,40.729731],[-73.960317,40.729726]]]]}},{"type":"Feature","properties":{"site":"2-noble-street","bbl":"3025670001","address":"43 WEST STREET"},"geometry":{"type":"MultiPolygon","coordinates":[[[[-73.961425,40.727344],[-73.961426,40.727344],[-73.961389,40.727524],[-73.961343,40.727748],[-73.961283,40.728038],[-73.961287,40.728068],[-73.95901,40.728292],[-73.958895,40.727589],[-73.958982,40.72758],[-73.960027,40.727479],[-73.96029,40.727454],[-73.961425,40.727344]]]]}},{"type":"Feature","properties":{"site":"monitor-point","bbl":"3025900001","address":"40 QUAY STREET"},"geometry":{"type":"MultiPolygon","coordinates":[[[[-73.957846,40.726005],[-73.958363,40.725834],[-73.95831,40.725774],[-73.958306,40.72577],[-73.958227,40.725714],[-73.958211,40.725702],[-73.958418,40.725682],[-73.958553,40.725668],[-73.959084,40.725617],[-73.959495,40.725577],[-73.959853,40.725543],[-73.95992,40.725977],[-73.958678,40.726097],[-73.958574,40.726107],[-73.957733,40.726189],[-73.957712,40.726049],[-73.957846,40.726005]]]]}},{"type":"Feature","properties":{"site":"monitor-point","bbl":"3025900025","address":"56 QUAY STREET"},"geometry":{"type":"MultiPolygon","coordinates":[[[[-73.959853,40.725543],[-73.959495,40.725577],[-73.959456,40.725343],[-73.959479,40.725341],[-73.959503,40.725339],[-73.959698,40.725326],[-73.959704,40.725326],[-73.959754,40.725338],[-73.959915,40.725311],[-73.960061,40.725302],[-73.960072,40.725301],[-73.960085,40.725301],[-73.960098,40.725301],[-73.96011,40.725304],[-73.960123,40.72531],[-73.960131,40.725318],[-73.960135,40.725325],[-73.960139,40.725332],[-73.960146,40.72537],[-73.960161,40.725423],[-73.960176,40.725479],[-73.96018,40.725509],[-73.960182,40.725536],[-73.960181,40.725612],[-73.960181,40.725639],[-73.960175,40.725657],[-73.960181,40.725704],[-73.960183,40.72577],[-73.960189,40.725841],[-73.960198,40.725917],[-73.9602,40.72593],[-73.960203,40.72594],[-73.960209,40.725952],[-73.960218,40.725965],[-73.960319,40.72595],[-73.960315,40.725912],[-73.960777,40.725878],[-73.960783,40.725911],[-73.960944,40.725896],[-73.960943,40.725865],[-73.961549,40.725821],[-73.961557,40.725867],[-73.961563,40.725904],[-73.959932,40.726054],[-73.95992,40.725977],[-73.959853,40.725543]]]]}},{"type":"Feature","properties":{"site":"bushwick-inlet-park","bbl":"3025900100","address":"1 FRANKLIN STREET"},"geometry":{"type":"MultiPolygon","coordinates":[[[[-73.959754,40.725338],[-73.959704,40.725326],[-73.959698,40.725326],[-73.959915,40.725311],[-73.959754,40.725338]]],[[[-73.959456,40.725343],[-73.959495,40.725577],[-73.959084,40.725617],[-73.958553,40.725668],[-73.958418,40.725682],[-73.958211,40.725702],[-73.958161,40.725652],[-73.95816,40.725651],[-73.958136,40.725627],[-73.958078,40.725554],[-73.958066,40.725541],[-73.958055,40.725531],[-73.958048,40.725525],[-73.95804,40.725519],[-73.958033,40.725513],[-73.958025,40.725508],[-73.958018,40.725504],[-73.958012,40.7255],[-73.958008,40.725498],[-73.957997,40.725492],[-73.957989,40.725488],[-73.957982,40.725485],[-73.957816,40.725399],[-73.957806,40.725395],[-73.957756,40.725373],[-73.957747,40.725369],[-73.957739,40.725365],[-73.957719,40.725356],[-73.957706,40.725349],[-73.957694,40.725343],[-73.957681,40.725336],[-73.957658,40.725323],[-73.957672,40.725247],[-73.957689,40.725153],[-73.957813,40.724453],[-73.957873,40.724473],[-73.95802,40.724522],[-73.957972,40.724638],[-73.957971,40.724647],[-73.957948,40.724851],[-73.957943,40.724929],[-73.958046,40.725037],[-73.958144,40.725087],[-73.958359,40.725185],[-73.958411,40.725214],[-73.958438,40.725412],[-73.958806,40.725389],[-73.959479,40.725341],[-73.959456,40.725343]]],[[[-73.961549,40.725821],[-73.960943,40.725865],[-73.960941,40.72584],[-73.961216,40.725826],[-73.961308,40.725822],[-73.961544,40.725813],[-73.961549,40.725821]]],[[[-73.960315,40.725912],[-73.960314,40.725904],[-73.960774,40.725861],[-73.960777,40.725878],[-73.960315,40.725912]]],[[[-73.960175,40.725657],[-73.960181,40.725639],[-73.96018,40.725683],[-73.960181,40.725704],[-73.960175,40.725657]]]]}},{"type":"Feature","properties":{"site":"bushwick-inlet-park","bbl":"3025900101","address":"FRANKLIN STREET"},"geometry":{"type":"MultiPolygon","coordinates":[[[[-73.95783,40.724325],[-73.957869,40.724015],[-73.957991,40.72414],[-73.95812,40.724239],[-73.959252,40.724641],[-73.960261,40.724995],[-73.960844,40.725202],[-73.961235,40.725247],[-73.961213,40.725249],[-73.961184,40.725252],[-73.961154,40.725252],[-73.961119,40.725249],[-73.961062,40.725242],[-73.960996,40.725236],[-73.960958,40.725232],[-73.960928,40.725227],[-73.960864,40.725213],[-73.960779,40.725196],[-73.960712,40.725184],[-73.96065,40.725168],[-73.960582,40.725151],[-73.960496,40.725125],[-73.960444,40.725111],[-73.960413,40.725101],[-73.960391,40.725092],[-73.960345,40.725068],[-73.960307,40.725048],[-73.960295,40.725044],[-73.960269,40.725036],[-73.960259,40.725032],[-73.960203,40.72501],[-73.960147,40.724987],[-73.960091,40.724967],[-73.959744,40.724856],[-73.959078,40.724661],[-73.958623,40.724501],[-73.958347,40.724425],[-73.958174,40.724408],[-73.958106,40.724406],[-73.958061,40.724422],[-73.95802,40.724522],[-73.957873,40.724473],[-73.957813,40.724453],[-73.95783,40.724325]]]]}},{"type":"Feature","properties":{"site":"greenpoint-hospital","bbl":"3028850025","address":"MASPETH AVENUE"},"geometry":{"type":"MultiPolygon","coordinates":[[[[-73.938583,40.717174],[-73.93857,40.717152],[-73.93856,40.717143],[-73.938552,40.717138],[-73.938544,40.717132],[-73.938537,40.717128],[-73.938528,40.717123],[-73.93852,40.71712],[-73.93851,40.717116],[-73.938501,40.717113],[-73.938492,40.71711],[-73.938479,40.717107],[-73.938465,40.717105],[-73.938454,40.717104],[-73.93844,40.717103],[-73.938428,40.717103],[-73.938414,40.717104],[-73.938399,40.717105],[-73.938387,40.717107],[-73.938376,40.71711],[-73.938355,40.717116],[-73.93834,40.717123],[-73.938264,40.716953],[-73.93826,40.716942],[-73.93873,40.716802],[-73.939786,40.716488],[-73.939791,40.71653],[-73.939859,40.716941],[-73.939468,40.717066],[-73.939546,40.717221],[-73.939051,40.717378],[-73.938965,40.717203],[-73.938706,40.717286],[-73.938601,40.717168],[-73.938583,40.717174]]]]}}]}
